ATLAS CENTAUR R/B       
1 06155U 72065B   26026.80051330  .00002153  00000+0  29718-3 0  9993
2 06155  34.9997 191.2144 0033621  16.4331 343.7453 14.77553836835065
SL-8 R/B                
1 08459U 75112B   26026.62803554  .00000401  00000+0  14059-3 0  9997
2 08459  74.0607  96.2923 0015988 202.4210 157.6247 14.38181180625825
SL-3 R/B                
1 10114U 77057B   26026.61672357  .00017124  00000+0  37401-3 0  9998
2 10114  97.5717 196.7416 0008559  77.1916 283.0287 15.44229218661839
SEASAT 1                
1 10967U 78064A   26026.50806431  .00000630  00000+0  21463-3 0  9998
2 10967 108.0171  36.9743 0001278 287.1049  72.9957 14.46120617500415
SL-14 R/B               
1 11267U 79011B   26026.72802023  .00001192  00000+0  11535-3 0  9995
2 11267  82.5263 136.3794 0015702 192.4546 167.6288 14.91848563522527
SL-8 R/B                
1 11574U 79089B   26026.78270611  .00000556  00000+0  17627-3 0  9990
2 11574  74.0688 168.6115 0016023 347.4620  12.6135 14.42321322430064
SL-14 R/B               
1 11672U 80005B   26026.84773156  .00001210  00000+0  12010-3 0  9997
2 11672  82.5164 346.9135 0014454 307.0381  52.9515 14.90866645470250
SL-8 R/B                
1 12139U 81003B   26026.79274684  .00030688  00000+0  81438-3 0  9992
2 12139  82.9386 328.7183 0267157 325.1600  33.2384 15.09215744308351
SL-3 R/B                
1 12465U 81046B   26026.84812328  .00016131  00000+0  39038-3 0  9996
2 12465  81.2338 339.9287 0019763 159.4468 200.7573 15.40781860431988
SL-3 R/B                
1 12904U 81103B   26026.80355257  .00008081  00000+0  36389-3 0  9998
2 12904  81.1574 262.5576 0014415  67.5180 292.7575 15.20852770966868
SL-3 R/B                
1 13068U 82013B   26026.76403646  .00006110  00000+0  26841-3 0  9995
2 13068  81.1731 209.8889 0022221 323.0354  36.9345 15.21539398397975
SL-3 R/B                
1 13154U 82039B   26026.77594226  .00003903  00000+0  23741-3 0  9998
2 13154  81.1647 264.2646 0030059 101.6142 258.8460 15.09838444375313
