CCSDS_OMM_VERS = 2.0
CREATION_DATE  = 
ORIGINATOR     = 

OBJECT_NAME    = ATLAS CENTAUR R/B
OBJECT_ID      = 1972-065B
CENTER_NAME    = EARTH
REF_FRAME      = TEME
TIME_SYSTEM    = UTC
MEAN_ELEMENT_THEORY = SGP/SGP4

EPOCH          = 2026-01-26T19:12:44.349120
MEAN_MOTION    = 14.77553836
ECCENTRICITY   = .0033621
INCLINATION    = 34.9997
RA_OF_ASC_NODE = 191.2144
ARG_OF_PERICENTER = 16.4331
MEAN_ANOMALY   = 343.7453

EPHEMERIS_TYPE = 0
CLASSIFICATION_TYPE = U
NORAD_CAT_ID   = 6155
ELEMENT_SET_NO = 999
REV_AT_EPOCH   = 83506
BSTAR          = .29718E-3
MEAN_MOTION_DOT = .2153E-4
MEAN_MOTION_DDOT = 0

CCSDS_OMM_VERS = 2.0
CREATION_DATE  = 
ORIGINATOR     = 

OBJECT_NAME    = SL-8 R/B
OBJECT_ID      = 1975-112B
CENTER_NAME    = EARTH
REF_FRAME      = TEME
TIME_SYSTEM    = UTC
MEAN_ELEMENT_THEORY = SGP/SGP4

EPOCH          = 2026-01-26T15:04:22.270656
MEAN_MOTION    = 14.38181180
ECCENTRICITY   = .0015988
INCLINATION    = 74.0607
RA_OF_ASC_NODE = 96.2923
ARG_OF_PERICENTER = 202.4210
MEAN_ANOMALY   = 157.6247

EPHEMERIS_TYPE = 0
CLASSIFICATION_TYPE = U
NORAD_CAT_ID   = 8459
ELEMENT_SET_NO = 999
REV_AT_EPOCH   = 62582
BSTAR          = .14059E-3
MEAN_MOTION_DOT = .401E-5
MEAN_MOTION_DDOT = 0

CCSDS_OMM_VERS = 2.0
CREATION_DATE  = 
ORIGINATOR     = 

OBJECT_NAME    = SL-3 R/B
OBJECT_ID      = 1977-057B
CENTER_NAME    = EARTH
REF_FRAME      = TEME
TIME_SYSTEM    = UTC
MEAN_ELEMENT_THEORY = SGP/SGP4

EPOCH          = 2026-01-26T14:48:04.916448
MEAN_MOTION    = 15.44229218
ECCENTRICITY   = .00085599
INCLINATION    = 97.5717
RA_OF_ASC_NODE = 196.7416
ARG_OF_PERICENTER = 77.1916
MEAN_ANOMALY   = 283.0287

EPHEMERIS_TYPE = 0
CLASSIFICATION_TYPE = U
NORAD_CAT_ID   = 10114
ELEMENT_SET_NO = 999
REV_AT_EPOCH   = 66183
BSTAR          = .37400752E-3
MEAN_MOTION_DOT = .17124E-3
MEAN_MOTION_DDOT = 0

CCSDS_OMM_VERS = 2.0
CREATION_DATE  = 
ORIGINATOR     = 

OBJECT_NAME    = SEASAT 1
OBJECT_ID      = 1978-064A
CENTER_NAME    = EARTH
REF_FRAME      = TEME
TIME_SYSTEM    = UTC
MEAN_ELEMENT_THEORY = SGP/SGP4

EPOCH          = 2026-01-26T12:11:36.756384
MEAN_MOTION    = 14.46120617
ECCENTRICITY   = .00012787
INCLINATION    = 108.0171
RA_OF_ASC_NODE = 36.9743
ARG_OF_PERICENTER = 287.1049
MEAN_ANOMALY   = 72.9957

EPHEMERIS_TYPE = 0
CLASSIFICATION_TYPE = U
NORAD_CAT_ID   = 10967
ELEMENT_SET_NO = 999
REV_AT_EPOCH   = 50041
BSTAR          = .21463489E-3
MEAN_MOTION_DOT = .63E-5
MEAN_MOTION_DDOT = 0

CCSDS_OMM_VERS = 2.0
CREATION_DATE  = 
ORIGINATOR     = 

OBJECT_NAME    = SL-14 R/B
OBJECT_ID      = 1979-011B
CENTER_NAME    = EARTH
REF_FRAME      = TEME
TIME_SYSTEM    = UTC
MEAN_ELEMENT_THEORY = SGP/SGP4

EPOCH          = 2026-01-26T17:28:20.947872
MEAN_MOTION    = 14.91848563
ECCENTRICITY   = .0015702
INCLINATION    = 82.5263
RA_OF_ASC_NODE = 136.3794
ARG_OF_PERICENTER = 192.4546
MEAN_ANOMALY   = 167.6288

EPHEMERIS_TYPE = 0
CLASSIFICATION_TYPE = U
NORAD_CAT_ID   = 11267
ELEMENT_SET_NO = 999
REV_AT_EPOCH   = 52252
BSTAR          = .11535E-3
MEAN_MOTION_DOT = .1192E-4
MEAN_MOTION_DDOT = 0

CCSDS_OMM_VERS = 2.0
CREATION_DATE  = 
ORIGINATOR     = 

OBJECT_NAME    = SL-8 R/B
OBJECT_ID      = 1979-089B
CENTER_NAME    = EARTH
REF_FRAME      = TEME
TIME_SYSTEM    = UTC
MEAN_ELEMENT_THEORY = SGP/SGP4

EPOCH          = 2026-01-26T18:47:05.807904
MEAN_MOTION    = 14.42321322
ECCENTRICITY   = .0016023
INCLINATION    = 74.0688
RA_OF_ASC_NODE = 168.6115
ARG_OF_PERICENTER = 347.4620
MEAN_ANOMALY   = 12.6135

EPHEMERIS_TYPE = 0
CLASSIFICATION_TYPE = U
NORAD_CAT_ID   = 11574
ELEMENT_SET_NO = 999
REV_AT_EPOCH   = 43006
BSTAR          = .17627E-3
MEAN_MOTION_DOT = .556E-5
MEAN_MOTION_DDOT = 0

CCSDS_OMM_VERS = 2.0
CREATION_DATE  = 
ORIGINATOR     = 

OBJECT_NAME    = SL-14 R/B
OBJECT_ID      = 1980-005B
CENTER_NAME    = EARTH
REF_FRAME      = TEME
TIME_SYSTEM    = UTC
MEAN_ELEMENT_THEORY = SGP/SGP4

EPOCH          = 2026-01-26T20:20:44.006784
MEAN_MOTION    = 14.90866645
ECCENTRICITY   = .0014454
INCLINATION    = 82.5164
RA_OF_ASC_NODE = 346.9135
ARG_OF_PERICENTER = 307.0381
MEAN_ANOMALY   = 52.9515

EPHEMERIS_TYPE = 0
CLASSIFICATION_TYPE = U
NORAD_CAT_ID   = 11672
ELEMENT_SET_NO = 999
REV_AT_EPOCH   = 47025
BSTAR          = .1201E-3
MEAN_MOTION_DOT = .121E-4
MEAN_MOTION_DDOT = 0

CCSDS_OMM_VERS = 2.0
CREATION_DATE  = 
ORIGINATOR     = 

OBJECT_NAME    = SL-8 R/B
OBJECT_ID      = 1981-003B
CENTER_NAME    = EARTH
REF_FRAME      = TEME
TIME_SYSTEM    = UTC
MEAN_ELEMENT_THEORY = SGP/SGP4

EPOCH          = 2026-01-26T19:01:33.326976
MEAN_MOTION    = 15.09215744
ECCENTRICITY   = .0267157
INCLINATION    = 82.9386
RA_OF_ASC_NODE = 328.7183
ARG_OF_PERICENTER = 325.1600
MEAN_ANOMALY   = 33.2384

EPHEMERIS_TYPE = 0
CLASSIFICATION_TYPE = U
NORAD_CAT_ID   = 12139
ELEMENT_SET_NO = 999
REV_AT_EPOCH   = 30835
BSTAR          = .81438E-3
MEAN_MOTION_DOT = .30688E-3
MEAN_MOTION_DDOT = 0

CCSDS_OMM_VERS = 2.0
CREATION_DATE  = 
ORIGINATOR     = 

OBJECT_NAME    = SL-3 R/B
OBJECT_ID      = 1981-046B
CENTER_NAME    = EARTH
REF_FRAME      = TEME
TIME_SYSTEM    = UTC
MEAN_ELEMENT_THEORY = SGP/SGP4

EPOCH          = 2026-01-26T20:21:17.851392
MEAN_MOTION    = 15.40781860
ECCENTRICITY   = .0019763
INCLINATION    = 81.2338
RA_OF_ASC_NODE = 339.9287
ARG_OF_PERICENTER = 159.4468
MEAN_ANOMALY   = 200.7573

EPHEMERIS_TYPE = 0
CLASSIFICATION_TYPE = U
NORAD_CAT_ID   = 12465
ELEMENT_SET_NO = 999
REV_AT_EPOCH   = 43198
BSTAR          = .39038E-3
MEAN_MOTION_DOT = .16131E-3
MEAN_MOTION_DDOT = 0

CCSDS_OMM_VERS = 2.0
CREATION_DATE  = 
ORIGINATOR     = 

OBJECT_NAME    = SL-3 R/B
OBJECT_ID      = 1981-103B
CENTER_NAME    = EARTH
REF_FRAME      = TEME
TIME_SYSTEM    = UTC
MEAN_ELEMENT_THEORY = SGP/SGP4

EPOCH          = 2026-01-26T19:17:06.942048
MEAN_MOTION    = 15.20852770
ECCENTRICITY   = .0014415
INCLINATION    = 81.1574
RA_OF_ASC_NODE = 262.5576
ARG_OF_PERICENTER = 67.5180
MEAN_ANOMALY   = 292.7575

EPHEMERIS_TYPE = 0
CLASSIFICATION_TYPE = U
NORAD_CAT_ID   = 12904
ELEMENT_SET_NO = 999
REV_AT_EPOCH   = 96686
BSTAR          = .36389E-3
MEAN_MOTION_DOT = .8081E-4
MEAN_MOTION_DDOT = 0

CCSDS_OMM_VERS = 2.0
CREATION_DATE  = 
ORIGINATOR     = 

OBJECT_NAME    = SL-3 R/B
OBJECT_ID      = 1982-013B
CENTER_NAME    = EARTH
REF_FRAME      = TEME
TIME_SYSTEM    = UTC
MEAN_ELEMENT_THEORY = SGP/SGP4

EPOCH          = 2026-01-26T18:20:12.750144
MEAN_MOTION    = 15.21539398
ECCENTRICITY   = .0022221
INCLINATION    = 81.1731
RA_OF_ASC_NODE = 209.8889
ARG_OF_PERICENTER = 323.0354
MEAN_ANOMALY   = 36.9345

EPHEMERIS_TYPE = 0
CLASSIFICATION_TYPE = U
NORAD_CAT_ID   = 13068
ELEMENT_SET_NO = 999
REV_AT_EPOCH   = 39797
BSTAR          = .26841E-3
MEAN_MOTION_DOT = .611E-4
MEAN_MOTION_DDOT = 0

CCSDS_OMM_VERS = 2.0
CREATION_DATE  = 
ORIGINATOR     = 

OBJECT_NAME    = SL-3 R/B
OBJECT_ID      = 1982-039B
CENTER_NAME    = EARTH
REF_FRAME      = TEME
TIME_SYSTEM    = UTC
MEAN_ELEMENT_THEORY = SGP/SGP4

EPOCH          = 2026-01-26T18:37:21.411264
MEAN_MOTION    = 15.09838444
ECCENTRICITY   = .0030059
INCLINATION    = 81.1647
RA_OF_ASC_NODE = 264.2646
ARG_OF_PERICENTER = 101.6142
MEAN_ANOMALY   = 258.8460

EPHEMERIS_TYPE = 0
CLASSIFICATION_TYPE = U
NORAD_CAT_ID   = 13154
ELEMENT_SET_NO = 999
REV_AT_EPOCH   = 37531
BSTAR          = .23741E-3
MEAN_MOTION_DOT = .3903E-4
MEAN_MOTION_DDOT = 0

